      2.10          N: GNSS NAV DATA                        RINEX VERSION / TYPE
fic2rin                                 07/22/2024 00:59:01 PGM / RUN BY / DATE
                                                            END OF HEADER
32 24  7 21  1 59 44.0 -.611044000834D-03  .216004991671D-11  .000000000000D+00
     .270000000000D+02 -.113187500000D+03  .421838999859D-08 -.116241935539D+01
    -.567361712456D-05  .780095148366D-02  .115334987640D-04  .515371062279D+04
     .718400000000D+04  .745058059692D-07  .310555187317D+01  .184401869774D-06
     .962814122536D+00  .157000000000D+03 -.213140741061D+01 -.769424906779D-08
     .379658671450D-09  .100000000000D+01  .232400000000D+04  .000000000000D+00
     .240000000000D+01  .000000000000D+00  .931322574615D-09  .270000000000D+02
     .660000000000D+03  .400000000000D+01
7  24  7 21  1 59 44.0 -.659669749439D-04  .727595761418D-11  .000000000000D+00
     .800000000000D+01  .148437500000D+02  .523378943691D-08  .156170229259D+01
     .635161995888D-06  .186677082675D-01  .739283859730D-05  .515361847115D+04
     .718400000000D+04 -.519677996635D-06 -.212035007890D+01 -.149011611938D-06
     .950040385613D+00  .238656250000D+03 -.210896670517D+01 -.830498879326D-08
     .541808282775D-09  .100000000000D+01  .232400000000D+04  .000000000000D+00
     .240000000000D+01  .000000000000D+00 -.111758708954D-07  .800000000000D+01
     .840000000000D+03  .400000000000D+01
17 24  7 21  1 59 44.0  .673295464367D-03 -.795807864051D-11  .000000000000D+00
     .420000000000D+02  .106781250000D+03  .385266047877D-08 -.191408366362D+01
     .561214983463D-05  .134313907474D-01  .107232481241D-04  .515377322197D+04
     .718400000000D+04  .949949026108D-07  .343419404682D-01  .352039933205D-06
     .968521298045D+00  .180093750000D+03 -.131408325744D+01 -.754781439677D-08
    -.361800784741D-09  .100000000000D+01  .232400000000D+04  .000000000000D+00
     .240000000000D+01  .000000000000D+00 -.111758708954D-07  .420000000000D+02
     .495000000000D+04  .400000000000D+01
6  24  7 21  1 59 44.0  .149094965309D-03 -.230784280575D-10  .000000000000D+00
     .100000000000D+01  .108125000000D+03  .376229957202D-08  .245480017045D+01
     .570155680180D-05  .292691949289D-02  .226870179176D-05  .515366230774D+04
     .718400000000D+04 -.167638063431D-07  .103605800690D+01  .204890966415D-07
     .989561530067D+00  .351281250000D+03 -.711972464648D+00 -.791318675885D-08
     .257867884090D-09  .100000000000D+01  .232400000000D+04  .000000000000D+00
     .240000000000D+01  .000000000000D+00  .372529029846D-08  .100000000000D+01
     .660000000000D+04  .400000000000D+01
7  24  7 21  3 59 44.0 -.659148208797D-04  .727595761418D-11  .000000000000D+00
     .320000000000D+02  .142187500000D+02  .502270921600D-08  .261194686564D+01
     .564381480217D-06  .186680606566D-01  .720098614693D-05  .515361736870D+04
     .143840000000D+05  .596046447754D-07 -.212040784075D+01 -.296160578728D-06
     .950047008243D+00  .234593750000D+03 -.210899197269D+01 -.774960851659D-08
     .581095633537D-09  .100000000000D+01  .232400000000D+04  .000000000000D+00
     .240000000000D+01  .000000000000D+00 -.111758708954D-07  .320000000000D+02
     .720000000000D+04  .400000000000D+01
32 24  7 21  3 59 44.0 -.611028634012D-03  .216004991671D-11  .000000000000D+00
     .280000000000D+02 -.108437500000D+03  .418517432931D-08 -.112266682849D+00
    -.568479299545D-05  .780138967093D-02  .118929892778D-04  .515371126175D+04
     .143840000000D+05 -.670552253723D-07  .310549567225D+01  .134110450745D-06
     .962816346171D+00  .155968750000D+03 -.213140368602D+01 -.782639742944D-08
     .395730769489D-09  .100000000000D+01  .232400000000D+04  .000000000000D+00
     .240000000000D+01  .000000000000D+00  .931322574615D-09  .280000000000D+02
     .720000000000D+04  .400000000000D+01
17 24  7 21  3 59 44.0  .673238188028D-03 -.795807864051D-11  .000000000000D+00
     .440000000000D+02  .967187500000D+02  .409409910709D-08 -.864114853555D+00
     .510923564434D-05  .134310986614D-01  .113230198622D-04  .515376940727D+04
     .143840000000D+05 -.167638063431D-06  .342854089249D-01  .726431608200D-07
     .968517566141D+00  .169781250000D+03 -.131393422266D+01 -.788782855972D-08
    -.275725770799D-09  .100000000000D+01  .232400000000D+04  .000000000000D+00
     .240000000000D+01  .000000000000D+00 -.111758708954D-07  .440000000000D+02
     .720000000000D+04  .400000000000D+01
3  24  7 21  4  0  0.0  .466990284622D-03  .162572177942D-10  .000000000000D+00
     .200000000000D+02 -.117031250000D+03  .390730561211D-08  .209647000982D+01
    -.610388815403D-05  .569848658051D-02  .110641121864D-05  .515369664383D+04
     .144000000000D+05  .242143869400D-07  .207269568778D+01 -.577419996262D-07
     .985120536487D+00  .371843750000D+03  .113046111265D+01 -.810962351266D-08
    -.167506977338D-09  .100000000000D+01  .232400000000D+04  .000000000000D+00
     .240000000000D+01  .000000000000D+00  .139698386192D-08  .200000000000D+02
     .720000000000D+04  .400000000000D+01
2  24  7 21  4  0  0.0 -.394993927330D-03  .738964445191D-11  .000000000000D+00
     .930000000000D+02  .135187500000D+03  .430375069706D-08 -.630078967421D+00
     .713393092155D-05  .160174472257D-01  .348314642906D-05  .515369582939D+04
     .144000000000D+05 -.318512320518D-06  .936467920288D+00  .186264514923D-07
     .967171748803D+00  .321312500000D+03 -.115795174986D+01 -.840999316712D-08
     .409302763389D-09  .100000000000D+01  .232400000000D+04  .000000000000D+00
     .240000000000D+01  .000000000000D+00 -.176951289177D-07  .930000000000D+02
     .720000000000D+04  .400000000000D+01
1  24  7 21  4  0  0.0  .238443259150D-03 -.738964445191D-11  .000000000000D+00
     .510000000000D+02 -.131875000000D+02  .646884088176D-08  .591073173896D+00
    -.432133674622D-06  .133350861724D-01  .683404505253D-05  .515358637810D+04
     .144000000000D+05 -.800937414169D-07 -.105714388197D+01  .987201929092D-07
     .953782889937D+00  .245062500000D+03  .103378349552D+01 -.836856286995D-08
    -.715386941595D-09  .100000000000D+01  .232400000000D+04  .000000000000D+00
     .340000000000D+01  .630000000000D+02 -.195577740669D-07  .510000000000D+02
     .720000000000D+04  .400000000000D+01
10 24  7 21  4  0  0.0 -.715861096978D-04 -.100044417195D-10  .000000000000D+00
     .250000000000D+02 -.119843750000D+03  .404409702430D-08  .115102827793D+01
    -.626221299171D-05  .945031933952D-02  .189244747162D-05  .515369036865D+04
     .144000000000D+05 -.137835741043D-06  .207013651594D+01  .800937414169D-07
     .984770948806D+00  .356312500000D+03 -.237855330880D+01 -.824177187431D-08
    -.312870175156D-09  .100000000000D+01  .232400000000D+04  .000000000000D+00
     .240000000000D+01  .000000000000D+00  .232830643654D-08  .250000000000D+02
     .720000000000D+04  .400000000000D+01
5  24  7 21  4  0  0.0 -.180456787348D-03 -.125055521494D-11  .000000000000D+00
     .930000000000D+02 -.954062500000D+02  .423374778116D-08 -.483635784046D+00
    -.485777854919D-05  .595765933394D-02  .166334211826D-05  .515364798355D+04
     .144000000000D+05 -.465661287308D-07  .202062437978D+01  .577419996262D-07
     .972026884250D+00  .353625000000D+03  .129374545723D+01 -.830820321287D-08
    -.960754304987D-10  .100000000000D+01  .232400000000D+04  .000000000000D+00
     .240000000000D+01  .000000000000D+00 -.107102096081D-07  .930000000000D+02
     .720000000000D+04  .400000000000D+01
13 24  7 21  4  0  0.0  .665890052915D-03  .238742359215D-11  .000000000000D+00
     .140000000000D+02 -.765000000000D+02  .403052503040D-08 -.110440962696D+01
    -.381283462048D-05  .832498224918D-02  .112541019917D-04  .515366170883D+04
     .144000000000D+05  .143423676491D-06 -.302587051581D+01  .126659870148D-06
     .972232694880D+00  .167625000000D+03  .936638004995D+00 -.763888961899D-08
     .451090218290D-09  .100000000000D+01  .232400000000D+04  .000000000000D+00
     .240000000000D+01  .000000000000D+00 -.111758708954D-07  .140000000000D+02
     .720000000000D+04  .400000000000D+01
22 24  7 21  4  0  0.0 -.420454889536D-04 -.443378667114D-11  .000000000000D+00
     .350000000000D+02 -.211250000000D+02  .499270796633D-08 -.319254963348D+00
    -.101141631603D-05  .142206350574D-01  .727362930775D-05  .515368846893D+04
     .144000000000D+05 -.147148966789D-06 -.983072670614D+00 -.117346644402D-06
     .960577120373D+00  .242656250000D+03 -.112958460382D+01 -.832213236450D-08
    -.580024160334D-09  .100000000000D+01  .232400000000D+04  .000000000000D+00
     .240000000000D+01  .000000000000D+00 -.111758708954D-07  .350000000000D+02
     .720000000000D+04  .400000000000D+01
12 24  7 21  4  0  0.0 -.523950438946D-03 -.306954461848D-11  .000000000000D+00
     .520000000000D+02 -.162187500000D+02  .473448292450D-08  .188145265120D+01
    -.116601586342D-05  .867035263218D-02  .705011188984D-05  .515361533737D+04
     .144000000000D+05  .558793544769D-08 -.100417572619D+01 -.149011611938D-06
     .961780606023D+00  .240625000000D+03  .145709855311D+01 -.787925677410D-08
    -.677528221770D-09  .100000000000D+01  .232400000000D+04  .000000000000D+00
     .240000000000D+01  .000000000000D+00 -.125728547573D-07  .520000000000D+02
     .720000000000D+04  .400000000000D+01
31 24  7 21  4  0  0.0 -.226596836001D-03  .341060513165D-12  .000000000000D+00
     .190000000000D+02  .141250000000D+02  .515271463125D-08  .168039415699D+01
     .828877091408D-06  .105051621795D-01  .728666782379D-05  .515374737740D+04
     .144000000000D+05 -.251457095146D-06 -.209866192631D+01  .134110450745D-06
     .953989705592D+00  .239562500000D+03  .696278570614D+00 -.816855453880D-08
     .572166690182D-09  .100000000000D+01  .232400000000D+04  .000000000000D+00
     .240000000000D+01  .000000000000D+00 -.135041773319D-07  .190000000000D+02
     .720000000000D+04  .400000000000D+01
